{
  "type": "FeatureCollection",
  "features": [
    {
      "type": "Feature",
      "properties": {
        "norad_id": 30873,
        "name": "FENGYUN 1C DEB",
        "group": "fengyun-1c-debris",
        "lat": -13.291122724179148,
        "lon": -16.251798189986168,
        "alt_km": 774.4706323167666,
        "timestamp": "2025-12-07T05:38:10.183408+00:00",
        "meta_object_name": "FENGYUN 1C DEB",
        "meta_object_id": "1999-025AXK",
        "meta_epoch": "2025-12-06T11:05:06.438912",
        "meta_mean_motion": 14.19128201,
        "meta_eccentricity": 0.01079437,
        "meta_inclination": 98.6116,
        "meta_ra_of_asc_node": 340.9455,
        "meta_arg_of_pericenter": 307.0255,
        "meta_mean_anomaly": 52.1083,
        "meta_ephemeris_type": 0,
        "meta_classification_type": "U",
        "meta_norad_cat_id": 30873,
        "meta_element_set_no": 999,
        "meta_rev_at_epoch": 97103,
        "meta_bstar": 0.00042033266,
        "meta_mean_motion_dot": 8.88e-06,
        "meta_mean_motion_ddot": 0,
        "tle_line1": "1 30873U 99025AXK 25340.46188008  .00000888  00000+0  42033-3 0  9993",
        "tle_line2": "2 30873  98.6116 340.9455 0107943 307.0255  52.1083 14.19128201971038"
      },
      "geometry": {
        "type": "Point",
        "coordinates": [
          -16.251798189986168,
          -13.291122724179148
        ]
      }
    },
    {
      "type": "Feature",
      "properties": {
        "norad_id": 30874,
        "name": "FENGYUN 1C DEB",
        "group": "fengyun-1c-debris",
        "lat": -70.05695056612367,
        "lon": 167.76071056337554,
        "alt_km": 863.2250033073342,
        "timestamp": "2025-12-07T05:38:10.183417+00:00",
        "meta_object_name": "FENGYUN 1C DEB",
        "meta_object_id": "1999-025AXL",
        "meta_epoch": "2025-12-06T13:56:24.454176",
        "meta_mean_motion": 14.19632413,
        "meta_eccentricity": 0.00423108,
        "meta_inclination": 98.4908,
        "meta_ra_of_asc_node": 11.445,
        "meta_arg_of_pericenter": 58.2795,
        "meta_mean_anomaly": 93.2023,
        "meta_ephemeris_type": 0,
        "meta_classification_type": "U",
        "meta_norad_cat_id": 30874,
        "meta_element_set_no": 999,
        "meta_rev_at_epoch": 96933,
        "meta_bstar": 0.00078461853,
        "meta_mean_motion_dot": 1.631e-05,
        "meta_mean_motion_ddot": 0,
        "tle_line1": "1 30874U 99025AXL 25340.58083859  .00001631  00000+0  78462-3 0  9997",
        "tle_line2": "2 30874  98.4908  11.4450 0042310  58.2795  93.2023 14.19632413969336"
      },
      "geometry": {
        "type": "Point",
        "coordinates": [
          167.76071056337554,
          -70.05695056612367
        ]
      }
    },
    {
      "type": "Feature",
      "properties": {
        "norad_id": 30876,
        "name": "FENGYUN 1C DEB",
        "group": "fengyun-1c-debris",
        "lat": 1.499940457156798,
        "lon": -33.70765793121774,
        "alt_km": 881.5746735668617,
        "timestamp": "2025-12-07T05:38:10.183427+00:00",
        "meta_object_name": "FENGYUN 1C DEB",
        "meta_object_id": "1999-025AXN",
        "meta_epoch": "2025-12-06T05:40:39.462240",
        "meta_mean_motion": 13.99156614,
        "meta_eccentricity": 0.00668078,
        "meta_inclination": 98.8092,
        "meta_ra_of_asc_node": 325.5651,
        "meta_arg_of_pericenter": 295.5551,
        "meta_mean_anomaly": 79.8729,
        "meta_ephemeris_type": 0,
        "meta_classification_type": "U",
        "meta_norad_cat_id": 30876,
        "meta_element_set_no": 999,
        "meta_rev_at_epoch": 95619,
        "meta_bstar": 0.00045002882,
        "meta_mean_motion_dot": 6.22e-06,
        "meta_mean_motion_ddot": 0,
        "tle_line1": "1 30876U 99025AXN 25340.23656785  .00000622  00000+0  45003-3 0  9999",
        "tle_line2": "2 30876  98.8092 325.5651 0066807 295.5551  79.8729 13.99156614956195"
      },
      "geometry": {
        "type": "Point",
        "coordinates": [
          -33.70765793121774,
          1.499940457156798
        ]
      }
    },
    {
      "type": "Feature",
      "properties": {
        "norad_id": 30878,
        "name": "FENGYUN 1C DEB",
        "group": "fengyun-1c-debris",
        "lat": -45.014471192339336,
        "lon": 154.03059265550738,
        "alt_km": 856.8766317120071,
        "timestamp": "2025-12-07T05:38:10.183437+00:00",
        "meta_object_name": "FENGYUN 1C DEB",
        "meta_object_id": "1999-025AXQ",
        "meta_epoch": "2025-12-05T23:47:43.987776",
        "meta_mean_motion": 14.11862148,
        "meta_eccentricity": 0.00401968,
        "meta_inclination": 98.7211,
        "meta_ra_of_asc_node": 341.6558,
        "meta_arg_of_pericenter": 313.8536,
        "meta_mean_anomaly": 76.1061,
        "meta_ephemeris_type": 0,
        "meta_classification_type": "U",
        "meta_norad_cat_id": 30878,
        "meta_element_set_no": 999,
        "meta_rev_at_epoch": 96272,
        "meta_bstar": 0.00091641676,
        "meta_mean_motion_dot": 1.643e-05,
        "meta_mean_motion_ddot": 0,
        "tle_line1": "1 30878U 99025AXQ 25339.99148134  .00001643  00000+0  91642-3 0  9990",
        "tle_line2": "2 30878  98.7211 341.6558 0040196 313.8536  76.1061 14.11862148962720"
      },
      "geometry": {
        "type": "Point",
        "coordinates": [
          154.03059265550738,
          -45.014471192339336
        ]
      }
    },
    {
      "type": "Feature",
      "properties": {
        "norad_id": 30879,
        "name": "FENGYUN 1C DEB",
        "group": "fengyun-1c-debris",
        "lat": -14.452401893799808,
        "lon": 14.676968944431653,
        "alt_km": 703.3667222380127,
        "timestamp": "2025-12-07T05:38:10.183447+00:00",
        "meta_object_name": "FENGYUN 1C DEB",
        "meta_object_id": "1999-025AXR",
        "meta_epoch": "2025-12-05T13:26:26.568672",
        "meta_mean_motion": 14.66714068,
        "meta_eccentricity": 0.02045637,
        "meta_inclination": 99.352,
        "meta_ra_of_asc_node": 195.2022,
        "meta_arg_of_pericenter": 301.8719,
        "meta_mean_anomaly": 56.2717,
        "meta_ephemeris_type": 0,
        "meta_classification_type": "U",
        "meta_norad_cat_id": 30879,
        "meta_element_set_no": 999,
        "meta_rev_at_epoch": 61834,
        "meta_bstar": 0.0065419798,
        "meta_mean_motion_dot": 0.00050105,
        "meta_mean_motion_ddot": 0,
        "tle_line1": "1 30879U 99025AXR 25339.56002973  .00050105  00000+0  65420-2 0  9995",
        "tle_line2": "2 30879  99.3520 195.2022 0204563 301.8719  56.2717 14.66714068618340"
      },
      "geometry": {
        "type": "Point",
        "coordinates": [
          14.676968944431653,
          -14.452401893799808
        ]
      }
    },
    {
      "type": "Feature",
      "properties": {
        "norad_id": 30880,
        "name": "FENGYUN 1C DEB",
        "group": "fengyun-1c-debris",
        "lat": 70.59711872835334,
        "lon": -100.86237251600839,
        "alt_km": 784.063695825661,
        "timestamp": "2025-12-07T05:38:10.183457+00:00",
        "meta_object_name": "FENGYUN 1C DEB",
        "meta_object_id": "1999-025AXS",
        "meta_epoch": "2025-12-06T10:36:19.738368",
        "meta_mean_motion": 14.25540941,
        "meta_eccentricity": 0.00226782,
        "meta_inclination": 98.7954,
        "meta_ra_of_asc_node": 52.2655,
        "meta_arg_of_pericenter": 124.9465,
        "meta_mean_anomaly": 235.3848,
        "meta_ephemeris_type": 0,
        "meta_classification_type": "U",
        "meta_norad_cat_id": 30880,
        "meta_element_set_no": 999,
        "meta_rev_at_epoch": 96624,
        "meta_bstar": 0.0025440611,
        "meta_mean_motion_dot": 5.993e-05,
        "meta_mean_motion_ddot": 0,
        "tle_line1": "1 30880U 99025AXS 25340.44189512  .00005993  00000+0  25441-2 0  9995",
        "tle_line2": "2 30880  98.7954  52.2655 0022678 124.9465 235.3848 14.25540941966249"
      },
      "geometry": {
        "type": "Point",
        "coordinates": [
          -100.86237251600839,
          70.59711872835334
        ]
      }
    },
    {
      "type": "Feature",
      "properties": {
        "norad_id": 30882,
        "name": "FENGYUN 1C DEB",
        "group": "fengyun-1c-debris",
        "lat": -11.582989824824878,
        "lon": -145.0685844543901,
        "alt_km": 685.3980818971258,
        "timestamp": "2025-12-07T05:38:10.183467+00:00",
        "meta_object_name": "FENGYUN 1C DEB",
        "meta_object_id": "1999-025AXU",
        "meta_epoch": "2025-12-06T09:24:14.577696",
        "meta_mean_motion": 14.8652181,
        "meta_eccentricity": 0.01541556,
        "meta_inclination": 97.9441,
        "meta_ra_of_asc_node": 35.7287,
        "meta_arg_of_pericenter": 61.5337,
        "meta_mean_anomaly": 300.131,
        "meta_ephemeris_type": 0,
        "meta_classification_type": "U",
        "meta_norad_cat_id": 30882,
        "meta_element_set_no": 999,
        "meta_rev_at_epoch": 99560,
        "meta_bstar": 0.0016174098,
        "meta_mean_motion_dot": 0.00017763,
        "meta_mean_motion_ddot": 0,
        "tle_line1": "1 30882U 99025AXU 25340.39183539  .00017763  00000+0  16174-2 0  9995",
        "tle_line2": "2 30882  97.9441  35.7287 0154155  61.5337 300.1310 14.86521810995608"
      },
      "geometry": {
        "type": "Point",
        "coordinates": [
          -145.0685844543901,
          -11.582989824824878
        ]
      }
    }
  ]
}